GPS BIIR-5  (PRN 22)    
1 26407U 00040A   26174.28512105  .00000052  00000+0  00000+0 0  9992
2 26407  54.8508 214.9200 0120961 302.5244  64.1899  2.00557780190076
GPS BIIR-8  (PRN 16)    
1 27663U 03005A   26174.19910410  .00000051  00000+0  00000+0 0  9991
2 27663  54.8814 214.7299 0147991  53.0898  27.5702  2.00560308171437
GPS BIIR-11 (PRN 19)    
1 28190U 04009A   26174.96904108 -.00000073  00000+0  00000+0 0  9999
2 28190  54.8239 275.4130 0116394 173.3953 256.1802  2.00554582163083
GPS BIIR-13 (PRN 02)    
1 28474U 04045A   26174.75957648 -.00000105  00000+0  00000+0 0  9994
2 28474  55.1318 324.6314 0169898 316.5740  26.7212  2.00556268158558
GPS BIIRM-1 (PRN 17)    
1 28874U 05038A   26174.29716620 -.00000072  00000+0  00000+0 0  9996
2 28874  54.8729 272.9307 0127942 296.2134  37.1387  2.00565318151958
GPS BIIRM-2 (PRN 31)    
1 29486U 06042A   26174.47202595  .00000072  00000+0  00000+0 0  9992
2 29486  54.7115 151.0894 0106699  54.5726 303.6123  2.00569516144519
GPS BIIRM-3 (PRN 12)    
1 29601U 06052A   26172.90572389  .00000037  00000+0  00000+0 0  9990
2 29601  54.9339 213.8191 0085492  90.7942 270.2511  2.00558294143503
GPS BIIRM-4 (PRN 15)    
1 32260U 07047A   26173.21082181 -.00000062  00000+0  00000+0 0  9990
2 32260  54.0988  79.8584 0166962  87.4865 274.4365  2.00555002136918
GPS BIIRM-5 (PRN 29)    
1 32384U 07062A   26173.51698934 -.00000075  00000+0  00000+0 0  9990
2 32384  55.0272 273.9382 0035810 165.9476 182.5532  2.00560436135610
GPS BIIRM-6 (PRN 07)    
1 32711U 08012A   26174.11880639  .00000072  00000+0  00000+0 0  9998
2 32711  54.4982 149.6877 0211378 247.9177 109.8083  2.00572612133875
GPS BIIRM-8 (PRN 05)    
1 35752U 09043A   26174.61852273 -.00000097  00000+0  00000+0 0  9997
2 35752  56.2144  27.1991 0053789  83.4687 286.6867  2.00554013123495
GPS BIIF-1  (PRN 25)    
1 36585U 10022A   26171.69905779  .00000034  00000+0  00000+0 0  9996
2 36585  54.2700 208.4205 0126401  66.1303 114.9344  2.00562607117666
GPS BIIF-3  (PRN 24)    
1 38833U 12053A   26173.80043381  .00000061  00000+0  00000+0 0  9997
2 38833  53.5870 143.3694 0180620  65.8357 296.0170  2.00567598 99551
GPS BIIF-4  (PRN 27)    
1 39166U 13023A   26174.16610834 -.00000066  00000+0  00000+0 0  9994
2 39166  54.4992 268.7299 0141475  51.0504 310.2345  2.00563498 96000
GPS BIIF-5  (PRN 30)    
1 39533U 14008A   26174.66641729  .00000066  00000+0  00000+0 0  9997
2 39533  53.6556 149.0554 0084224 231.3654 127.8599  2.00560255 89819
GPS BIIF-6  (PRN 06)    
1 39741U 14026A   26173.94481660 -.00000099  00000+0  00000+0 0  9991
2 39741  56.4953 331.2933 0038130 326.4275  33.3264  2.00560629 88654
GPS BIIF-7  (PRN 09)    
1 40105U 14045A   26174.03660958 -.00000055  00000+0  00000+0 0  9990
2 40105  55.3568  88.2318 0033560 118.2282 242.1138  2.00558836 86197
GPS BIIF-8  (PRN 03)    
1 40294U 14068A   26173.90606669 -.00000097  00000+0  00000+0 0  9994
2 40294  56.9915  30.7343 0067175  70.8298 289.9454  2.00576612 85324
GPS BIIF-9  (PRN 26)    
1 40534U 15013A   26174.54431299  .00000072  00000+0  00000+0 0  9990
2 40534  53.1675 203.9145 0109691  40.1848 320.6834  2.00551087 81957
GPS BIIF-10 (PRN 08)    
1 40730U 15033A   26174.70278468 -.00000061  00000+0  00000+0 0  9994
2 40730  53.9772 266.8177 0115130  30.2357 330.4600  2.00556025 80129
GPS BIIF-11 (PRN 10)    
1 41019U 15062A   26173.76146143 -.00000097  00000+0  00000+0 0  9995
2 41019  56.9632  30.5963 0112067 231.0618 127.9803  2.00567128 77940
GPS BIIF-12 (PRN 32)    
1 41328U 16007A   26174.35143464 -.00000056  00000+0  00000+0 0  9992
2 41328  55.5273  89.2151 0095306 247.1068 111.8872  2.00551431 75960
GPS BIII-1  (PRN 04)    
1 43873U 18109A   26174.23729806 -.00000050  00000+0  00000+0 0  9995
2 43873  55.6857  91.9476 0038322 197.8317 334.3743  2.00562050 55190
GPS BIII-2  (PRN 18)    
1 44506U 19056A   26174.86769734 -.00000103  00000+0  00000+0 0  9993
2 44506  55.6337 330.8764 0062316 197.6606 333.5530  2.00570063 50206
GPS BIII-3  (PRN 23)    
1 45854U 20041A   26173.71775760 -.00000098  00000+0  00000+0 0  9998
2 45854  56.6735  28.7279 0064233 204.6080 154.4402  2.00558666 44144
GPS BIII-4  (PRN 14)    
1 46826U 20078A   26174.74953767  .00000065  00000+0  00000+0 0  9990
2 46826  53.9790 210.5121 0073734 207.4039 153.1814  2.00565058 41641
GPS BIII-5  (PRN 11)    
1 48859U 21054A   26174.73850376 -.00000104  00000+0  00000+0 0  9999
2 48859  55.1710 332.1956 0025606 228.3288 310.5751  2.00568790 36880
GPS BIII-6  (PRN 28)    
1 55268U 23009A   26173.93956837  .00000071  00000+0  00000+0 0  9995
2 55268  55.1236 148.2926 0006195 317.3194  43.0768  2.00571247 25363
GPS BIII-7  (PRN 01)    
1 62339U 24242A   26174.07359558 -.00000103  00000+0  00000+0 0  9992
2 62339  54.8459 333.9419 0017560   4.4754 174.9937  2.00571849 11373
GPS BIII-8  (PRN 21)    
1 64202U 25116A   26174.81582529 -.00000098  00000+0  00000+0 0  9995
2 64202  55.2396  30.8630 0008286 339.1810 199.1690  2.00575606  8009
GPS BIII-9  (PRN 20)    
1 67588U 26017A   26174.67859423 -.00000060  00000+0  00000+0 0  9999
2 67588  55.0923  88.4946 0021822 258.7607 100.9960  2.00571043431745
GPS BIII-10 (PRN 13)    
1 68791U 26087A   26173.65141046  .00000058  00000+0  00000+0 0  9991
2 68791  54.9627 207.5713 0020681 106.6591  76.9843  2.00570839   940
